NORAD_CAT_ID,OBJECT_NAME,OBJECT_TYPE,EPOCH,MEAN_MOTION,ECCENTRICITY,INCLINATION,RA_OF_ASC_NODE,ARG_OF_PERICENTER,MEAN_ANOMALY,BSTAR,MEAN_MOTION_DOT,MEAN_MOTION_DDOT,TLE_LINE0,TLE_LINE1,TLE_LINE2,SEMIMAJOR_AXIS,PERIOD,APOGEE,PERIGEE,DECAYED
50805.0,STARLINK-3333,PAYLOAD,2023-05-09 05:17:26,15.08848567,0.0001472,53.2157,127.5216,75.7114,284.4041,7.3709e-06,-1.71e-06,0.0,0 STARLINK-3333,1 50805U 22001C   23129.22044896 -.00000171  00000-0  73709-5 0  9996,2 50805  53.2157 127.5216 0001472  75.7114 284.4041 15.08848567 75496,6917.854,95.437,540.738,538.701,0.0
50805.0,STARLINK-3333,PAYLOAD,2023-05-09 11:38:59,15.08850491,0.000118,53.2152,126.3305,75.646,284.4663,7.234e-05,8.64e-06,0.0,0 STARLINK-3333,1 50805U 22001C   23129.48540741  .00000864  00000-0  72340-4 0  9991,2 50805  53.2152 126.3305 0001180  75.6460 284.4663 15.08850491 74269,6917.848,95.437,540.53,538.897,0.0
50805.0,STARLINK-3333,PAYLOAD,2023-05-10 09:54:22,15.08856173,0.0001205,53.2152,122.1673,72.9664,287.146,0.00033458,5.043e-05,0.0,0 STARLINK-3333,1 50805U 22001C   23130.41276555  .00005043  00000-0  33458-3 0  9995,2 50805  53.2152 122.1673 0001205  72.9664 287.1460 15.08856173 74409,6917.831,95.437,540.53,538.862,0.0
50805.0,STARLINK-3333,PAYLOAD,2023-05-11 06:34:23,15.0884364,0.0001287,53.2158,118.3016,74.064,286.0494,-3.5035e-06,-3.44e-06,0.0,0 STARLINK-3333,1 50805U 22001C   23131.27388731 -.00000344  00000-0 -35035-5 0  9996,2 50805  53.2158 118.3016 0001287  74.0640 286.0494 15.08843640 75805,6917.869,95.437,540.625,538.844,0.0
50805.0,STARLINK-3333,PAYLOAD,2023-05-11 16:06:42,15.08842683,0.0001177,53.2156,116.5176,82.0542,278.0584,-4.4333e-06,-3.58e-06,0.0,0 STARLINK-3333,1 50805U 22001C   23131.67132682 -.00000358  00000-0 -44333-5 0  9998,2 50805  53.2156 116.5176 0001177  82.0542 278.0584 15.08842683 74590,6917.872,95.437,540.551,538.923,0.0
50805.0,STARLINK-3333,PAYLOAD,2023-05-12 04:49:48,15.0884307,0.0001195,53.2162,114.1383,83.0627,277.0501,-1.6807e-05,-5.55e-06,0.0,0 STARLINK-3333,1 50805U 22001C   23132.20125161 -.00000555  00000-0 -16807-4 0  9995,2 50805  53.2162 114.1383 0001195  83.0627 277.0501 15.08843070 74674,6917.871,95.437,540.563,538.909,0.0
50805.0,STARLINK-3333,PAYLOAD,2023-05-12 06:25:11,15.08844471,0.0001225,53.2164,113.8411,83.112,277.0011,-4.4681e-06,-3.59e-06,0.0,0 STARLINK-3333,1 50805U 22001C   23132.26749039 -.00000359  00000-0 -44681-5 0  9991,2 50805  53.2164 113.8411 0001225  83.1120 277.0011 15.08844471 74680,6917.867,95.437,540.579,538.884,0.0
50805.0,STARLINK-3333,PAYLOAD,2023-05-13 04:40:35,15.08840693,0.0001239,53.2164,109.679,86.7929,273.3205,7.6936e-05,9.37e-06,0.0,0 STARLINK-3333,1 50805U 22001C   23133.19485122  .00000937  00000-0  76936-4 0  9991,2 50805  53.2164 109.6790 0001239  86.7929 273.3205 15.08840693 76097,6917.878,95.438,540.6,538.886,0.0
50805.0,STARLINK-3333,PAYLOAD,2023-05-13 15:48:17,15.08840352,0.0001221,53.2162,107.5969,86.2073,273.9059,7.8863e-05,9.67e-06,0.0,0 STARLINK-3333,1 50805U 22001C   23133.65853099  .00000967  00000-0  78863-4 0  9998,2 50805  53.2162 107.5969 0001221  86.2073 273.9059 15.08840352 74897,6917.879,95.438,540.589,538.9,0.0
50805.0,STARLINK-3333,PAYLOAD,2023-05-14 07:42:08,15.08841998,0.0001272,53.2172,104.6219,96.2952,263.8185,0.00010577,1.396e-05,0.0,0 STARLINK-3333,1 50805U 22001C   23134.32093017  .00001396  00000-0  10577-3 0  9993,2 50805  53.2172 104.6219 0001272  96.2952 263.8185 15.08841998 76265,6917.874,95.437,540.619,538.859,0.0
50805.0,STARLINK-3333,PAYLOAD,2023-05-14 15:39:04,15.08835419,0.0001266,53.2171,103.1344,97.1204,262.9932,5.1481e-05,5.31e-06,0.0,0 STARLINK-3333,1 50805U 22001C   23134.65213568  .00000531  00000-0  51481-4 0  9994,2 50805  53.2171 103.1344 0001266  97.1204 262.9932 15.08835419 76317,6917.894,95.438,540.635,538.884,0.0
50805.0,STARLINK-3333,PAYLOAD,2023-05-15 04:22:09,15.08841792,0.0001152,53.2163,100.757,85.5495,274.5629,4.8306e-05,4.81e-06,0.0,0 STARLINK-3333,1 50805U 22001C   23135.18205272  .00000481  00000-0  48306-4 0  9992,2 50805  53.2163 100.7570 0001152  85.5495 274.5629 15.08841792 75120,6917.875,95.437,540.537,538.943,0.0
50805.0,STARLINK-3333,PAYLOAD,2023-05-16 07:23:42,15.08842425,0.0001122,53.2165,95.7013,86.3764,273.7357,4.684e-05,4.58e-06,0.0,0 STARLINK-3333,1 50805U 22001C   23136.30813234  .00000458  00000-0  46840-4 0  9995,2 50805  53.2165  95.7013 0001122  86.3764 273.7357 15.08842425 76564,6917.873,95.437,540.514,538.962,0.0
50805.0,STARLINK-3333,PAYLOAD,2023-05-17 02:28:20,15.08837174,0.0001204,53.2176,92.1325,87.4943,272.6187,4.3976e-05,4.12e-06,0.0,0 STARLINK-3333,1 50805U 22001C   23137.10301607  .00000412  00000-0  43976-4 0  9997,2 50805  53.2176  92.1325 0001204  87.4943 272.6187 15.08837174 76682,6917.889,95.438,540.587,538.921,0.0
50805.0,STARLINK-3333,PAYLOAD,2023-05-17 04:03:43,15.08841219,0.000107,53.2166,91.8362,80.3371,279.7742,3.3638e-05,2.48e-06,0.0,0 STARLINK-3333,1 50805U 22001C   23137.16925388  .00000248  00000-0  33638-4 0  9992,2 50805  53.2166  91.8362 0001070  80.3371 279.7742 15.08841219 75427,6917.877,95.437,540.482,539.001,0.0
50805.0,STARLINK-3333,PAYLOAD,2023-05-18 05:29:54,15.08835868,0.000104,53.2166,87.0789,84.512,275.599,-1.4698e-05,-5.22e-06,0.0,0 STARLINK-3333,1 50805U 22001C   23138.22910059 -.00000522  00000-0 -14698-4 0  9991,2 50805  53.2166  87.0789 0001040  84.5120 275.5990 15.08835868 76852,6917.893,95.438,540.477,539.039,0.0
50805.0,STARLINK-3333,PAYLOAD,2023-05-19 05:20:40,15.08845042,0.0001051,53.2172,82.6184,87.4402,272.6711,9.3378e-05,1.199e-05,0.0,0 STARLINK-3333,1 50805U 22001C   23139.22269299  .00001199  00000-0  93378-4 0  9996,2 50805  53.2172  82.6184 0001051  87.4402 272.6711 15.08845042 77008,6917.865,95.437,540.457,539.003,0.0
50805.0,STARLINK-3333,PAYLOAD,2023-05-20 02:00:41,15.08840124,0.0001137,53.2171,78.7519,90.0634,270.0488,5.9968e-05,6.67e-06,0.0,0 STARLINK-3333,1 50805U 22001C   23140.08381786  .00000667  00000-0  59968-4 0  9994,2 50805  53.2171  78.7519 0001137  90.0634 270.0488 15.08840124 77130,6917.88,95.438,540.532,538.958,0.0
50805.0,STARLINK-3333,PAYLOAD,2023-05-20 03:36:04,15.08843024,0.0001178,53.2177,78.4554,87.4072,272.7055,9.0717e-05,1.156e-05,0.0,0 STARLINK-3333,1 50805U 22001C   23140.15005610  .00001156  00000-0  90717-4 0  9992,2 50805  53.2177  78.4554 0001178  87.4072 272.7055 15.08843024 75873,6917.871,95.437,540.551,538.921,0.0
50805.0,STARLINK-3333,PAYLOAD,2023-05-21 01:51:27,15.08852339,0.0001146,53.2178,74.2917,89.6384,270.474,7.9547e-05,9.79e-06,0.0,0 STARLINK-3333,1 50805U 22001C   23141.07740679  .00000979  00000-0  79547-4 0  9995,2 50805  53.2178  74.2917 0001146  89.6384 270.4740 15.08852339 77288,6917.843,95.437,540.5,538.915,0.0
50805.0,STARLINK-3333,PAYLOAD,2023-05-22 01:42:16,15.08836816,0.0001464,53.2188,69.832,94.3841,265.7318,-5.4292e-05,-1.152e-05,0.0,0 STARLINK-3333,1 50805U 22001C   23142.07102252 -.00001152  00000-0 -54292-4 0  9991,2 50805  53.2188  69.8320 0001464  94.3841 265.7318 15.08836816 77438,6917.89,95.438,540.768,538.742,0.0
50805.0,STARLINK-3333,PAYLOAD,2023-05-22 19:11:30,15.0884857,0.0001007,53.217,66.5619,82.5752,277.5355,-5.8401e-05,-1.217e-05,0.0,0 STARLINK-3333,1 50805U 22001C   23142.79965722 -.00001217  00000-0 -58401-4 0  9997,2 50805  53.2170  66.5619 0001007  82.5752 277.5355 15.08848570 77541,6917.854,95.437,540.416,539.023,0.0
50805.0,STARLINK-3333,PAYLOAD,2023-05-23 01:33:02,15.08856713,0.0001099,53.2171,65.3746,81.2894,278.8223,1.0581e-05,-1.19e-06,0.0,0 STARLINK-3333,1 50805U 22001C   23143.06460907 -.00000119  00000-0  10581-4 0  9999,2 50805  53.2171  65.3746 0001099  81.2894 278.8223 15.08856713 77584,6917.829,95.436,540.455,538.934,0.0
50805.0,STARLINK-3333,PAYLOAD,2023-05-23 04:43:48,15.08858655,0.0001129,53.2172,64.7764,93.3755,266.7366,8.5237e-05,1.07e-05,0.0,0 STARLINK-3333,1 50805U 22001C   23143.19708451  .00001070  00000-0  85237-4 0  9998,2 50805  53.2172  64.7764 0001129  93.3755 266.7366 15.08858655 76335,6917.823,95.436,540.469,538.907,0.0
50805.0,STARLINK-3333,PAYLOAD,2023-05-24 01:23:50,15.08831449,0.0001086,53.2169,60.9154,96.4151,263.6964,9.0757e-05,1.157e-05,0.0,0 STARLINK-3333,1 50805U 22001C   23144.05822650  .00001157  00000-0  90757-4 0  9991,2 50805  53.2169  60.9154 0001086  96.4151 263.6964 15.08831449 77735,6917.907,95.438,540.523,539.02,0.0
50805.0,STARLINK-3333,PAYLOAD,2023-05-25 21:54:38,15.08836212,0.000133,53.2185,52.5885,96.7795,263.3348,6.3508e-05,7.23e-06,0.0,0 STARLINK-3333,1 50805U 22001C   23145.91294595  .00000723  00000-0  63508-4 0  9990,2 50805  53.2185  52.5885 0001330  96.7795 263.3348 15.08836212 76746,6917.892,95.438,540.677,538.837,0.0
50805.0,STARLINK-3333,PAYLOAD,2023-05-26 02:40:47,15.08839501,0.0001267,53.2187,51.6955,93.378,266.7357,0.00013518,1.864e-05,0.0,0 STARLINK-3333,1 50805U 22001C   23146.11166531  .00001864  00000-0  13518-3 0  9993,2 50805  53.2187  51.6955 0001267  93.3780 266.7357 15.08839501 78048,6917.882,95.438,540.623,538.87,0.0
50805.0,STARLINK-3333,PAYLOAD,2023-05-26 21:45:26,15.08836076,0.0001249,53.2175,48.1259,96.488,263.6255,1.3254e-05,-7.7e-07,0.0,0 STARLINK-3333,1 50805U 22001C   23146.90655194 -.00000077  00000-0  13254-4 0  9992,2 50805  53.2175  48.1259 0001249  96.4880 263.6255 15.08836076 76896,6917.892,95.438,540.621,538.893,0.0
50805.0,STARLINK-3333,PAYLOAD,2023-05-27 02:31:35,15.08838804,0.0001244,53.2176,47.2339,95.5885,264.5249,2.4594e-05,1.04e-06,0.0,0 STARLINK-3333,1 50805U 22001C   23147.10526964  .00000104  00000-0  24594-4 0  9996,2 50805  53.2176  47.2339 0001244  95.5885 264.5249 15.08838804 78195,6917.884,95.438,540.61,538.888,0.0
50805.0,STARLINK-3333,PAYLOAD,2023-05-27 21:36:12,15.08844154,0.0001251,53.2188,43.6627,90.0378,270.0758,7.77e-05,9.49e-06,0.0,0 STARLINK-3333,1 50805U 22001C   23147.90014567  .00000949  00000-0  77700-4 0  9999,2 50805  53.2188  43.6627 0001251  90.0378 270.0758 15.08844154 77048,6917.868,95.437,540.598,538.867,0.0
